HELIOS 2A               
1 28492U 04049A   24198.54433387  .00004681  00000+0  40252-3 0  9997
2 28492  98.3220 193.9324 0015094 100.2576 260.0347 14.97861839 48675
SPIRALE A               
1 33751U 09008C   24198.34479776  .00001474  00000+0  15231-2 0  9996
2 33751   2.0292 246.6182 5546336 262.2560  34.7849  4.59751614229741
SPIRALE B               
1 33752U 09008D   24198.20855540  .00009479  00000+0  17487-2 0  9997
2 33752   2.0575  55.0965 6781965 268.6732  19.0790  2.93775939146952
SAPPHIRE                
1 39088U 13009C   24198.57261018  .00000309  00000+0  12424-3 0  9992
2 39088  98.4112  24.5900 0011502 169.3626 190.7805 14.34725181596092